start=new Date('2023-06-29T00:00:00.000Z').valueOf();
sats=[{"REV_AT_EPOCH":"5383","LAUNCH_DATE":"2022-07-17","ELEMENT_SET_NO":"999","ECCENTRICITY":"0.00010960","TLE_LINE2":"2 53180  53.2153 226.2890 0001096  88.1526 271.9591 15.08842669 53835","APOAPSIS":"540.495","ARG_OF_PERICENTER":"88.1526","TLE_LINE1":"1 53180U 22083BA  23179.57257355  .00001965  00000-0  14150-3 0  9998","CENTER_NAME":"EARTH","PERIAPSIS":"538.979","RCS_SIZE":"LARGE","FILE":"3945129","EPHEMERIS_TYPE":"0","TIME_SYSTEM":"UTC","NORAD_CAT_ID":"53180","BSTAR":"0.00014150000000","MEAN_MOTION":"15.08842669","CLASSIFICATION_TYPE":"U","OBJECT_TYPE":"PAYLOAD","SEMIMAJOR_AXIS":"6917.872","PERIOD":"95.437","EPOCH":"2023-06-28T13:44:30.354720","COUNTRY_CODE":"US","MEAN_MOTION_DOT":"0.00001965","INCLINATION":"53.2153","OBJECT_NAME":"STARLINK-4258","DECAY_DATE":null,"REF_FRAME":"TEME","MEAN_ELEMENT_THEORY":"SGP4","RA_OF_ASC_NODE":"226.2890","MEAN_MOTION_DDOT":"0.0000000000000","OBJECT_ID":"2022-083BA","MEAN_ANOMALY":"271.9591","GP_ID":"234609468","SITE":"AFETR"},{"BSTAR":"0.00015019000000","MEAN_MOTION":"15.08833251","TIME_SYSTEM":"UTC","EPHEMERIS_TYPE":"0","NORAD_CAT_ID":"53181","RCS_SIZE":"LARGE","FILE":"3944732","PERIAPSIS":"539.233","APOAPSIS":"540.299","ARG_OF_PERICENTER":"88.2267","TLE_LINE1":"1 53181U 22083BB  23179.17418005  .00002103  00000-0  15019-3 0  9996","CENTER_NAME":"EARTH","TLE_LINE2":"2 53181  53.2161 228.0683 0000771  88.2267 271.8814 15.08833251 53774","ECCENTRICITY":"0.00007710","REV_AT_EPOCH":"5377","ELEMENT_SET_NO":"999","LAUNCH_DATE":"2022-07-17","OBJECT_ID":"2022-083BB","MEAN_MOTION_DDOT":"0.0000000000000","MEAN_ANOMALY":"271.8814","GP_ID":"234599409","SITE":"AFETR","REF_FRAME":"TEME","MEAN_ELEMENT_THEORY":"SGP4","RA_OF_ASC_NODE":"228.0683","DECAY_DATE":null,"INCLINATION":"53.2161","MEAN_MOTION_DOT":"0.00002103","OBJECT_NAME":"STARLINK-4273","EPOCH":"2023-06-28T04:10:49.156320","COUNTRY_CODE":"US","OBJECT_TYPE":"PAYLOAD","PERIOD":"95.438","SEMIMAJOR_AXIS":"6917.901","CLASSIFICATION_TYPE":"U"},{"TLE_LINE2":"2 53182  53.2150 243.1441 0001051  90.1002 270.0110 15.08837978 53561","ECCENTRICITY":"0.00010510","LAUNCH_DATE":"2022-07-17","ELEMENT_SET_NO":"999","REV_AT_EPOCH":"5356","CENTER_NAME":"EARTH","APOAPSIS":"540.479","ARG_OF_PERICENTER":"90.1002","TLE_LINE1":"1 53182U 22083BC  23179.20042190  .00001607  00000-0  11901-3 0  9993","FILE":"3944665","RCS_SIZE":"LARGE","PERIAPSIS":"539.024","MEAN_MOTION":"15.08837978","BSTAR":"0.00011901000000","NORAD_CAT_ID":"53182","EPHEMERIS_TYPE":"0","TIME_SYSTEM":"UTC","OBJECT_TYPE":"PAYLOAD","SEMIMAJOR_AXIS":"6917.887","PERIOD":"95.438","CLASSIFICATION_TYPE":"U","MEAN_MOTION_DOT":"0.00001607","INCLINATION":"53.2150","OBJECT_NAME":"STARLINK-4278","COUNTRY_CODE":"US","EPOCH":"2023-06-28T04:48:36.452160","MEAN_ELEMENT_THEORY":"SGP4","RA_OF_ASC_NODE":"243.1441","REF_FRAME":"TEME","DECAY_DATE":null,"GP_ID":"234598725","SITE":"AFETR","OBJECT_ID":"2022-083BC","MEAN_MOTION_DDOT":"0.0000000000000","MEAN_ANOMALY":"270.0110"},{"FILE":"3945140","RCS_SIZE":"LARGE","PERIAPSIS":"538.962","MEAN_MOTION":"15.08839671","BSTAR":"0.00012643000000","NORAD_CAT_ID":"53183","EPHEMERIS_TYPE":"0","TIME_SYSTEM":"UTC","ECCENTRICITY":"0.00011340","TLE_LINE2":"2 53183  53.2161 231.8428 0001134  80.5365 279.5755 15.08839671 53741","ELEMENT_SET_NO":"999","LAUNCH_DATE":"2022-07-17","REV_AT_EPOCH":"5374","CENTER_NAME":"EARTH","ARG_OF_PERICENTER":"80.5365","TLE_LINE1":"1 53183U 22083BD  23179.47365142  .00001725  00000-0  12643-3 0  9993","APOAPSIS":"540.531","RA_OF_ASC_NODE":"231.8428","MEAN_ELEMENT_THEORY":"SGP4","REF_FRAME":"TEME","DECAY_DATE":null,"SITE":"AFETR","GP_ID":"234609841","MEAN_ANOMALY":"279.5755","MEAN_MOTION_DDOT":"0.0000000000000","OBJECT_ID":"2022-083BD","PERIOD":"95.438","SEMIMAJOR_AXIS":"6917.881","OBJECT_TYPE":"PAYLOAD","CLASSIFICATION_TYPE":"U","MEAN_MOTION_DOT":"0.00001725","OBJECT_NAME":"STARLINK-4268","INCLINATION":"53.2161","COUNTRY_CODE":"US","EPOCH":"2023-06-28T11:22:03.482688"},{"BSTAR":"0.00008977100000","MEAN_MOTION":"15.08841004","TIME_SYSTEM":"UTC","EPHEMERIS_TYPE":"0","NORAD_CAT_ID":"53184","RCS_SIZE":"LARGE","FILE":"3945140","PERIAPSIS":"538.963","APOAPSIS":"540.522","TLE_LINE1":"1 53184U 22083BE  23179.61574769  .00001141  00000-0  89771-4 0  9996","ARG_OF_PERICENTER":"89.4041","CENTER_NAME":"EARTH","ECCENTRICITY":"0.00011270","TLE_LINE2":"2 53184  53.2155 225.8748 0001127  89.4041 270.7080 15.08841004 53842","REV_AT_EPOCH":"5384","ELEMENT_SET_NO":"999","LAUNCH_DATE":"2022-07-17","OBJECT_ID":"2022-083BE","MEAN_MOTION_DDOT":"0.0000000000000","MEAN_ANOMALY":"270.7080","GP_ID":"234609842","SITE":"AFETR","REF_FRAME":"TEME","MEAN_ELEMENT_THEORY":"SGP4","RA_OF_ASC_NODE":"225.8748","DECAY_DATE":null,"MEAN_MOTION_DOT":"0.00001141","OBJECT_NAME":"STARLINK-4257","INCLINATION":"53.2155","EPOCH":"2023-06-28T14:46:40.600416","COUNTRY_CODE":"US","OBJECT_TYPE":"PAYLOAD","SEMIMAJOR_AXIS":"6917.877","PERIOD":"95.437","CLASSIFICATION_TYPE":"U"},{"ELEMENT_SET_NO":"999","LAUNCH_DATE":"2022-07-22","REV_AT_EPOCH":"5192","ECCENTRICITY":"0.00002720","TLE_LINE2":"2 53189  97.6555 240.6250 0000272 142.6680 217.4563 15.01256349 51923","CENTER_NAME":"EARTH","ARG_OF_PERICENTER":"142.6680","TLE_LINE1":"1 53189U 22084A   23179.73145852  .00001099  00000-0  90147-4 0  9993","APOAPSIS":"563.212","PERIAPSIS":"562.834","RCS_SIZE":"LARGE","FILE":"3945166","NORAD_CAT_ID":"53189","TIME_SYSTEM":"UTC","EPHEMERIS_TYPE":"0","MEAN_MOTION":"15.01256349","BSTAR":"0.00009014700000","CLASSIFICATION_TYPE":"U","PERIOD":"95.920","SEMIMAJOR_AXIS":"6941.158","OBJECT_TYPE":"PAYLOAD","COUNTRY_CODE":"US","EPOCH":"2023-06-28T17:33:18.016128","MEAN_MOTION_DOT":"0.00001099","INCLINATION":"97.6555","OBJECT_NAME":"STARLINK-4391","DECAY_DATE":null,"RA_OF_ASC_NODE":"240.6250","MEAN_ELEMENT_THEORY":"SGP4","REF_FRAME":"TEME","SITE":"AFWTR","GP_ID":"234610206","MEAN_ANOMALY":"217.4563","MEAN_MOTION_DDOT":"0.0000000000000","OBJECT_ID":"2022-084A"},{"ECCENTRICITY":"0.00014600","TLE_LINE2":"2 53190  97.6542 240.6558 0001460  93.9947 266.1444 15.01266864 51928","REV_AT_EPOCH":"5192","LAUNCH_DATE":"2022-07-22","ELEMENT_SET_NO":"999","TLE_LINE1":"1 53190U 22084B   23179.75898735  .00002524  00000-0  20103-3 0  9990","ARG_OF_PERICENTER":"93.9947","APOAPSIS":"564.004","CENTER_NAME":"EARTH","FILE":"3945166","RCS_SIZE":"LARGE","PERIAPSIS":"561.977","BSTAR":"0.00020103000000","MEAN_MOTION":"15.01266864","EPHEMERIS_TYPE":"0","TIME_SYSTEM":"UTC","NORAD_CAT_ID":"53190","PERIOD":"95.919","SEMIMAJOR_AXIS":"6941.126","OBJECT_TYPE":"PAYLOAD","CLASSIFICATION_TYPE":"U","MEAN_MOTION_DOT":"0.00002524","INCLINATION":"97.6542","OBJECT_NAME":"STARLINK-4332","EPOCH":"2023-06-28T18:12:56.507040","COUNTRY_CODE":"US","REF_FRAME":"TEME","RA_OF_ASC_NODE":"240.6558","MEAN_ELEMENT_THEORY":"SGP4","DECAY_DATE":null,"MEAN_ANOMALY":"266.1444","OBJECT_ID":"2022-084B","MEAN_MOTION_DDOT":"0.0000000000000","SITE":"AFWTR","GP_ID":"234610710"},{"TLE_LINE2":"2 53191  97.6571 240.6375 0001561 101.0121 259.1279 15.01254978 51915","ECCENTRICITY":"0.00015610","LAUNCH_DATE":"2022-07-22","ELEMENT_SET_NO":"999","REV_AT_EPOCH":"5191","CENTER_NAME":"EARTH","APOAPSIS":"564.111","ARG_OF_PERICENTER":"101.0121","TLE_LINE1":"1 53191U 22084C   23179.72010816  .00001169  00000-0  95580-4 0  9990","FILE":"3945167","RCS_SIZE":"LARGE","PERIAPSIS":"561.944","MEAN_MOTION":"15.01254978","BSTAR":"0.00009558000000","NORAD_CAT_ID":"53191","TIME_SYSTEM":"UTC","EPHEMERIS_TYPE":"0","OBJECT_TYPE":"PAYLOAD","PERIOD":"95.920","SEMIMAJOR_AXIS":"6941.162","CLASSIFICATION_TYPE":"U","MEAN_MOTION_DOT":"0.00001169","OBJECT_NAME":"STARLINK-4369","INCLINATION":"97.6571","COUNTRY_CODE":"US","EPOCH":"2023-06-28T17:16:57.345024","MEAN_ELEMENT_THEORY":"SGP4","RA_OF_ASC_NODE":"240.6375","REF_FRAME":"TEME","DECAY_DATE":null,"GP_ID":"234610224","SITE":"AFWTR","OBJECT_ID":"2022-084C","MEAN_MOTION_DDOT":"0.0000000000000","MEAN_ANOMALY":"259.1279"},{"ARG_OF_PERICENTER":"113.1195","TLE_LINE1":"1 53192U 22084D   23178.71846806  .00000624  00000-0  53134-4 0  9999","APOAPSIS":"563.927","CENTER_NAME":"EARTH","REV_AT_EPOCH":"5176","ELEMENT_SET_NO":"999","LAUNCH_DATE":"2022-07-22","ECCENTRICITY":"0.00013120","TLE_LINE2":"2 53192  97.6571 239.6514 0001312 113.1195 247.0167 15.01258703 51763","TIME_SYSTEM":"UTC","EPHEMERIS_TYPE":"0","NORAD_CAT_ID":"53192","BSTAR":"0.00005313400000","MEAN_MOTION":"15.01258703","PERIAPSIS":"562.105","RCS_SIZE":"LARGE","FILE":"3944440","EPOCH":"2023-06-27T17:14:35.640384","COUNTRY_CODE":"US","INCLINATION":"97.6571","MEAN_MOTION_DOT":"0.00000624","OBJECT_NAME":"STARLINK-4375","CLASSIFICATION_TYPE":"U","PERIOD":"95.920","SEMIMAJOR_AXIS":"6941.151","OBJECT_TYPE":"PAYLOAD","MEAN_ANOMALY":"247.0167","MEAN_MOTION_DDOT":"0.0000000000000","OBJECT_ID":"2022-084D","SITE":"AFWTR","GP_ID":"234592860","DECAY_DATE":null,"REF_FRAME":"TEME","RA_OF_ASC_NODE":"239.6514","MEAN_ELEMENT_THEORY":"SGP4"},{"OBJECT_ID":"2022-084E","MEAN_MOTION_DDOT":"0.0000000000000","MEAN_ANOMALY":"242.6125","GP_ID":"234610721","SITE":"AFWTR","DECAY_DATE":null,"REF_FRAME":"TEME","MEAN_ELEMENT_THEORY":"SGP4","RA_OF_ASC_NODE":"240.6376","EPOCH":"2023-06-28T17:22:17.335200","COUNTRY_CODE":"US","MEAN_MOTION_DOT":"0.00002038","OBJECT_NAME":"STARLINK-4351","INCLINATION":"97.6576","CLASSIFICATION_TYPE":"U","OBJECT_TYPE":"PAYLOAD","SEMIMAJOR_AXIS":"6941.159","PERIOD":"95.920","TIME_SYSTEM":"UTC","EPHEMERIS_TYPE":"0","NORAD_CAT_ID":"53193","BSTAR":"0.00016324000000","MEAN_MOTION":"15.01256208","PERIAPSIS":"561.304","RCS_SIZE":"LARGE","FILE":"3945167","APOAPSIS":"564.744","ARG_OF_PERICENTER":"117.5351","TLE_LINE1":"1 53193U 22084E   23179.72381175  .00002038  00000-0  16324-3 0  9995","CENTER_NAME":"EARTH","REV_AT_EPOCH":"5192","ELEMENT_SET_NO":"999","LAUNCH_DATE":"2022-07-22","TLE_LINE2":"2 53193  97.6576 240.6376 0002478 117.5351 242.6125 15.01256208 51924","ECCENTRICITY":"0.00024780"}];
